OBJECT_NAME,OBJECT_ID,EPOCH,MEAN_MOTION,ECCENTRICITY,INCLINATION,RA_OF_ASC_NODE,ARG_OF_PERICENTER,MEAN_ANOMALY,EPHEMERIS_TYPE,CLASSIFICATION_TYPE,NORAD_CAT_ID,ELEMENT_SET_NO,REV_AT_EPOCH,BSTAR,MEAN_MOTION_DOT,MEAN_MOTION_DDOT
IRIDIUM 154,2018-061F,2026-07-17T00:32:46.461408,14.34217536,.00023019,86.3940,44.3267,90.0435,270.1025,0,U,43574,999,41768,.6763842E-5,.39E-6,0
IRIDIUM 163,2018-061G,2026-07-17T06:47:14.529120,14.34217115,.00020066,86.3934,44.1321,85.3111,274.8314,0,U,43575,999,41769,-.2228188E-5,.14E-6,0
IRIDIUM 156,2018-061H,2026-07-17T01:09:18.423360,14.34218044,.00021268,86.3936,44.2377,93.4368,266.7071,0,U,43576,999,41765,.16627487E-4,.66E-6,0
IRIDIUM 164,2018-061J,2026-07-17T00:41:54.505248,14.34218566,.00023392,86.3938,44.2866,89.1929,270.9535,0,U,43577,999,41769,.3352673E-4,.114E-5,0
IRIDIUM 159,2018-061K,2026-07-17T06:38:06.456768,14.34217636,.00021341,86.3935,44.1194,85.8386,274.3053,0,U,43578,999,41769,.9113229E-5,.45E-6,0
IRIDIUM 180,2019-002A,2026-07-16T22:15:02.952864,14.34217889,.00021658,86.3993,341.1653,91.8850,268.2594,0,U,43922,999,39325,.32166327E-4,.11E-5,0
IRIDIUM 176,2019-002B,2026-07-17T08:04:56.573760,14.72250602,.00023331,86.6114,340.9333,90.3542,269.7943,0,U,43923,999,40368,.55954817E-4,.377E-5,0
IRIDIUM 168,2019-002C,2026-07-17T08:08:43.043712,14.34216837,.00021859,86.3996,341.0709,90.4019,269.7427,0,U,43924,999,39329,-.1181993E-5,.16E-6,0
IRIDIUM 173,2019-002D,2026-07-16T21:47:38.969088,14.34217637,.00020312,86.3987,341.1392,92.7726,267.3703,0,U,43925,999,39321,-.32132772E-4,-.7E-6,0
IRIDIUM 169,2019-002E,2026-07-17T05:32:15.152352,14.38613573,.00019623,86.4223,12.6286,104.3780,255.7636,0,U,43926,999,39454,.13169384E-4,.6E-6,0
IRIDIUM 172,2019-002F,2026-07-16T23:18:59.018688,14.34217631,.00021859,86.3992,341.1202,91.3558,268.7888,0,U,43927,999,39323,.490773E-5,.34E-6,0
IRIDIUM 175,2019-002G,2026-07-17T05:16:22.913760,14.43627862,.00054076,86.4511,277.9680,111.5164,248.6614,0,U,43928,999,40331,.44293262E-4,.17E-5,0
IRIDIUM 171,2019-002H,2026-07-16T22:51:34.962336,14.34217839,.00022447,86.4002,341.4376,94.8167,265.3286,0,U,43929,999,39322,.1161357E-4,.52E-6,0
IRIDIUM 170,2019-002J,2026-07-16T22:26:35.074752,14.72250887,.00022381,86.6112,341.1033,87.1001,273.0472,0,U,43930,999,40363,.55229428E-4,.373E-5,0
IRIDIUM 167,2019-002K,2026-07-16T22:42:26.958240,14.34217740,.00023241,86.3994,341.1537,98.3232,261.8227,0,U,43931,999,39322,.4515042E-5,.32E-6,0
IRIDIUM 181,2023-068S,2026-07-16T23:41:53.157984,14.43307697,.00024032,86.4475,44.3280,84.5328,275.6147,0,U,56726,999,16673,.20648068E-4,.9E-6,0
IRIDIUM 177,2023-068T,2026-07-17T08:10:25.470048,14.80025922,.00021975,86.1987,314.4760,96.6258,263.5213,0,U,56727,999,17082,.68021474E-4,.541E-5,0
IRIDIUM 174,2023-068U,2026-07-17T07:55:53.413248,14.72259778,.00019833,86.6121,341.0885,89.3733,270.7712,0,U,56728,999,17045,.56672231E-4,.382E-5,0
IRIDIUM 178,2023-068V,2026-07-16T22:10:25.504320,14.80028189,.00022815,86.6537,12.9311,90.8170,269.3312,0,U,56729,999,17076,.19584044E-4,.174E-5,0
IRIDIUM 179,2023-068W,2026-07-16T23:40:04.946304,14.80023217,.00023516,86.6768,21.9724,93.5958,266.5533,0,U,56730,999,17077,.8250573E-5,.89E-6,0
